#aV2006  6 17  0  0   .00000000      96 DD+AD WGS84 FIT  NGA
## 1379 518400.00000000   900.00000000 53903  .0000000000000
+   29     1  2  3  4  5  6  7  8  9 10 11 13 14 15 16 17 18
+         19 20 21 22 23 24 25 26 27 28 29 30  0  0  0  0  0
+          0  0  0  0  0  0  0  0  0  0  0  0  0  0  0  0  0
+          0  0  0  0  0  0  0  0  0  0  0  0  0  0  0  0  0
+          0  0  0  0  0  0  0  0  0  0  0  0  0  0  0  0  0
++         0  0  0  0  0  0  0  0  0  0  0  0  0  0  0  0  0
++         0  0  0  0  0  0  0  0  0  0  0  0  0  0  0  0  0
++         0  0  0  0  0  0  0  0  0  0  0  0  0  0  0  0  0
++         0  0  0  0  0  0  0  0  0  0  0  0  0  0  0  0  0
++         0  0  0  0  0  0  0  0  0  0  0  0  0  0  0  0  0
%c cc cc ccc ccc cccc cccc cccc cccc ccccc ccccc ccccc ccccc
%c cc cc ccc ccc cccc cccc cccc cccc ccccc ccccc ccccc ccccc
%f  0.0000000  0.000000000  0.00000000000  0.000000000000000
%f  0.0000000  0.000000000  0.00000000000  0.000000000000000
%i    0    0    0    0      0      0      0      0         0
%i    0    0    0    0      0      0      0      0         0
/*      NGA, ST. LOUIS,MO.                                  
/*   EPHEMERIS COMPUTED FROM  3 DAYS OF DATA                
/* CCCCCCCCCCCCCCCCCCCCCCCCCCCCCCCCCCCCCCCCCCCCCCCCCCCCCCCCC
/* CCCCCCCCCCCCCCCCCCCCCCCCCCCCCCCCCCCCCCCCCCCCCCCCCCCCCCCCC
*  2006  6 17  3 15   .00000000                                                 
P  1  16027.327524   4947.260803 -20414.523414     60.078178                    
V  1   8044.059646  25021.640490  12214.744390       .027869                    
P  2 -19962.628834   6447.191883 -16419.291984      5.603173                    
V  2  10969.633430 -17434.469813 -20713.909118       .031635                    
P  3  16624.333752  -1428.359861  20549.738054    107.409840                    
V  3  11355.159840  24016.832954  -7147.473668       .030918                    
P  4 -15556.928085  -4786.657353 -21079.266635    255.379923                    
V  4  16426.894835 -21006.038502  -7020.588442       .083494                    
P  5 -11454.449143  13802.840044 -19737.537194    132.519818                    
V  5 -24627.822565  -2964.716027  12512.915392       .423787                    
P  6   5661.835641  25017.345286  -6552.642096    566.366714                    
V  6  -6758.197636  -6454.781070 -29668.360133       .120819                    
P  7  17622.544050  15460.862668  12709.513703    541.380841                    
V  7   4025.870799  15462.480906 -25193.080496       .005679                    
P  8  -8700.785176 -12430.367969  21615.013483    -69.246261                    
V  8  18507.894187 -20749.240943  -4849.227205      -.014092                    
P  9 -15044.811341  21696.460175   -861.584379     24.553005                    
V  9  -2719.967987  -1435.251197  31929.107908       .014878                    
P 10 -25285.365219   1564.720088   8387.277127     85.156347                    
V 10 -10207.323680  -3739.435256 -29427.948450       .005764                    
P 11  12360.969465 -23334.960391  -1064.263664    333.877292                    
V 11   4990.800625   1356.570939  30397.609211       .023238                    
P 13  -4868.072820 -25352.585734  -6467.910526     70.035421                    
V 13   4368.808077   6969.303970 -30995.987846       .029430                    
P 14  15025.604814  19015.954242 -10866.715140    -11.809858                    
V 14   3359.523929  13537.408115  28113.793401       .007953                    
P 15   8981.510443  12550.251635  21428.025019    629.931297                    
V 15 -19081.507132  19987.854340  -4088.263257       .060533                    
P 16  26357.234153   1616.770777   3463.485146     50.099003                    
V 16   3823.955702   3261.303760 -31309.458192       .026378                    
P 17 -15159.435458 -19563.382254  -9778.242182     98.680512                    
V 17  -2282.029265 -12415.262584  28295.824871       .012857                    
P 18   8570.741467  15777.404855  19772.848049   -239.636594                    
V 18 -24564.414481  -3571.228621  13260.059225      -.014661                    
P 19  10852.168409 -13095.875022  20496.897996     -4.937637                    
V 19   9047.742455  24186.501266  10770.334257       .021592                    
P 20   8519.495038 -13842.919122 -21095.824779    -25.322157                    
V 20  26251.117233   4267.045491   7863.487871       .004776                    
P 21   1565.793811  18855.112155  18486.914465     36.009172                    
V 21 -16801.874924  16683.124907 -16181.609565       .024333                    
P 22  20821.234198  12216.029965  11246.202988    107.313056                    
V 22 -14277.916014   -251.880637  27059.934492       .038391                    
P 23   3611.175179 -20790.710574 -16125.670788    139.513989                    
V 23   9260.983480  18204.765678 -21688.133430      -.005956                    
P 24  -7371.757231 -13981.568758 -21075.136864     13.865160                    
V 24  18580.780168 -20084.553770   7011.501109       .027237                    
P 25  17658.263625  -2018.778108 -19383.381400    291.283140                    
V 25 -12726.895322  22082.972690 -13483.203181       .756159                    
P 26 -11406.310779   9734.440121  21446.211494   -149.386876                    
V 26 -10406.921262 -26217.591362   6814.381658      -.123766                    
P 27  -1675.411733 -19809.057626  18057.632687     53.730659                    
V 27  13831.802579 -17015.548683 -18313.223422       .017345                    
P 28 -18281.681084 -13287.834862  14515.948672     25.078481                    
V 28  17858.238279   1088.698497  23630.943589      -.008712                    
P 29 -13232.669131   6569.983313  22295.278457    620.273096                    
V 29 -10661.406164 -25547.755181   1487.833302       .044693                    
P 30   2065.216899  15865.150752 -21495.455667       .956065                    
V 30 -26570.226033  -2484.607661  -4327.555311       .010604                    
EOF
